STARLINK-1470
1 15772C 20038AU  21326.12658052 -.00011903  00000-0 -79755-3 0  3267
2 15772  53.0539  38.1860 0001758  63.0496 156.1056 15.06409821    18
